IXPE                    
1 49954U 21121A   24130.58335648  .00004394  00000+0  29764-3 0  9990
2 49954   0.2308 320.1992 0009976  64.6478  19.8389 14.97647241  5747
